{
  "type": "FeatureCollection",
  "features": [
    {
      "type": "Feature",
      "properties": {
        "norad_id": 65943,
        "name": "E-KAGAKU-1",
        "group": "stations",
        "lat": 42.434707576319035,
        "lon": -132.00141797907568,
        "alt_km": 388.0058707302651,
        "timestamp": "2025-12-04T10:51:48.895712+00:00",
        "meta_object_name": "E-KAGAKU-1",
        "meta_object_id": "1998-067XQ",
        "meta_epoch": "2025-12-02T21:39:34.941600",
        "meta_mean_motion": 15.57714998,
        "meta_eccentricity": 0.00035202,
        "meta_inclination": 51.6296,
        "meta_ra_of_asc_node": 189.358,
        "meta_arg_of_pericenter": 147.4331,
        "meta_mean_anomaly": 212.6879,
        "meta_ephemeris_type": 0,
        "meta_classification_type": "U",
        "meta_norad_cat_id": 65943,
        "meta_element_set_no": 999,
        "meta_rev_at_epoch": 832,
        "meta_bstar": 0.00096701912,
        "meta_mean_motion_dot": 0.00073283,
        "meta_mean_motion_ddot": 0,
        "tle_line1": "1 65943U 98067XQ  25336.90248775  .00073283  00000+0  96702-3 0  9997",
        "tle_line2": "2 65943  51.6296 189.3580 0003520 147.4331 212.6879 15.57714998  8329"
      },
      "geometry": {
        "type": "Point",
        "coordinates": [
          -132.00141797907568,
          42.434707576319035
        ]
      }
    },
    {
      "type": "Feature",
      "properties": {
        "norad_id": 66052,
        "name": "HRC MONOBLOCK CAMERA",
        "group": "stations",
        "lat": -9.557601064281927,
        "lon": 10.467941799704311,
        "alt_km": 406.69643811224614,
        "timestamp": "2025-12-04T10:51:48.895722+00:00",
        "meta_object_name": "HRC MONOBLOCK CAMERA",
        "meta_object_id": "1998-067XR",
        "meta_epoch": "2025-12-03T20:08:36.473856",
        "meta_mean_motion": 15.53262535,
        "meta_eccentricity": 0.00043606,
        "meta_inclination": 51.6292,
        "meta_ra_of_asc_node": 185.857,
        "meta_arg_of_pericenter": 148.6875,
        "meta_mean_anomaly": 211.4376,
        "meta_ephemeris_type": 0,
        "meta_classification_type": "U",
        "meta_norad_cat_id": 66052,
        "meta_element_set_no": 999,
        "meta_rev_at_epoch": 745,
        "meta_bstar": 0.00077352903,
        "meta_mean_motion_dot": 0.00049466,
        "meta_mean_motion_ddot": 0,
        "tle_line1": "1 66052U 98067XR  25337.83931104  .00049466  00000+0  77353-3 0  9994",
        "tle_line2": "2 66052  51.6292 185.8570 0004360 148.6875 211.4376 15.53262535  7459"
      },
      "geometry": {
        "type": "Point",
        "coordinates": [
          10.467941799704311,
          -9.557601064281927
        ]
      }
    },
    {
      "type": "Feature",
      "properties": {
        "norad_id": 66174,
        "name": "HTV-X1",
        "group": "stations",
        "lat": -25.764261315010803,
        "lon": 25.989067670894674,
        "alt_km": 419.7496609810869,
        "timestamp": "2025-12-04T10:51:48.895735+00:00",
        "meta_object_name": "HTV-X1",
        "meta_object_id": "2025-241A",
        "meta_epoch": "2025-12-03T21:33:39.277728",
        "meta_mean_motion": 15.4928465,
        "meta_eccentricity": 0.00035922,
        "meta_inclination": 51.6303,
        "meta_ra_of_asc_node": 186.2514,
        "meta_arg_of_pericenter": 201.3576,
        "meta_mean_anomaly": 158.7263,
        "meta_ephemeris_type": 0,
        "meta_classification_type": "U",
        "meta_norad_cat_id": 66174,
        "meta_element_set_no": 999,
        "meta_rev_at_epoch": 51,
        "meta_bstar": 0.00025253496,
        "meta_mean_motion_dot": 0.00013627,
        "meta_mean_motion_ddot": 0,
        "tle_line1": "1 66174U 25241A   25337.89837127  .00013627  00000+0  25253-3 0  9991",
        "tle_line2": "2 66174  51.6303 186.2514 0003592 201.3576 158.7263 15.49284650   516"
      },
      "geometry": {
        "type": "Point",
        "coordinates": [
          25.989067670894674,
          -25.764261315010803
        ]
      }
    },
    {
      "type": "Feature",
      "properties": {
        "norad_id": 66515,
        "name": "SZ-21 MODULE",
        "group": "stations",
        "lat": -1.9485976175475062,
        "lon": -111.21956778823444,
        "alt_km": 378.76385666599435,
        "timestamp": "2025-12-04T10:51:48.895745+00:00",
        "meta_object_name": "SZ-21 MODULE",
        "meta_object_id": "2025-246C",
        "meta_epoch": "2025-12-03T07:59:41.917920",
        "meta_mean_motion": 15.61790567,
        "meta_eccentricity": 0.0005832,
        "meta_inclination": 41.4771,
        "meta_ra_of_asc_node": 73.3983,
        "meta_arg_of_pericenter": 205.8085,
        "meta_mean_anomaly": 154.2464,
        "meta_ephemeris_type": 0,
        "meta_classification_type": "U",
        "meta_norad_cat_id": 66515,
        "meta_element_set_no": 999,
        "meta_rev_at_epoch": 297,
        "meta_bstar": 0.00036812,
        "meta_mean_motion_dot": 0.0003262,
        "meta_mean_motion_ddot": 0,
        "tle_line1": "1 66515U 25246C   25337.33312405  .00032620  00000+0  36812-3 0  9998",
        "tle_line2": "2 66515  41.4771  73.3983 0005832 205.8085 154.2464 15.61790567  2979"
      },
      "geometry": {
        "type": "Point",
        "coordinates": [
          -111.21956778823444,
          -1.9485976175475062
        ]
      }
    },
    {
      "type": "Feature",
      "properties": {
        "norad_id": 66645,
        "name": "SHENZHOU-22",
        "group": "stations",
        "lat": 8.224926893897797,
        "lon": 76.41751834276853,
        "alt_km": 385.26932368839334,
        "timestamp": "2025-12-04T10:51:48.895755+00:00",
        "meta_object_name": "SHENZHOU-22",
        "meta_object_id": "2025-272A",
        "meta_epoch": "2025-12-03T17:53:39.447744",
        "meta_mean_motion": 15.58598848,
        "meta_eccentricity": 0.00100687,
        "meta_inclination": 41.4679,
        "meta_ra_of_asc_node": 71.2873,
        "meta_arg_of_pericenter": 322.1315,
        "meta_mean_anomaly": 37.8814,
        "meta_ephemeris_type": 0,
        "meta_classification_type": "U",
        "meta_norad_cat_id": 66645,
        "meta_element_set_no": 999,
        "meta_rev_at_epoch": 26263,
        "meta_bstar": 0.00035132982,
        "meta_mean_motion_dot": 0.00027527,
        "meta_mean_motion_ddot": 0,
        "tle_line1": "1 66645U 25272A   25337.74559546  .00027527  00000+0  35133-3 0  9990",
        "tle_line2": "2 66645  41.4679  71.2873 0010068 322.1315  37.8814 15.58598848262631"
      },
      "geometry": {
        "type": "Point",
        "coordinates": [
          76.41751834276853,
          8.224926893897797
        ]
      }
    },
    {
      "type": "Feature",
      "properties": {
        "norad_id": 66646,
        "name": "CZ-2F R/B",
        "group": "stations",
        "lat": 35.871151764082086,
        "lon": -172.08578204684207,
        "alt_km": 229.18754570085275,
        "timestamp": "2025-12-04T10:51:48.895766+00:00",
        "meta_object_name": "CZ-2F R/B",
        "meta_object_id": "2025-272B",
        "meta_epoch": "2025-11-26T11:17:54.506400",
        "meta_mean_motion": 16.01945612,
        "meta_eccentricity": 0.01210796,
        "meta_inclination": 41.4431,
        "meta_ra_of_asc_node": 114.9009,
        "meta_arg_of_pericenter": 133.7676,
        "meta_mean_anomaly": 227.3272,
        "meta_ephemeris_type": 0,
        "meta_classification_type": "U",
        "meta_norad_cat_id": 66646,
        "meta_element_set_no": 999,
        "meta_rev_at_epoch": 21,
        "meta_bstar": 0.00029319366,
        "meta_mean_motion_dot": 0.00449059,
        "meta_mean_motion_ddot": 7.567612e-06,
        "tle_line1": "1 66646U 25272B   25330.47076975  .00449059  75676-5  29319-3 0  9998",
        "tle_line2": "2 66646  41.4431 114.9009 0121079 133.7676 227.3272 16.01945612   217"
      },
      "geometry": {
        "type": "Point",
        "coordinates": [
          -172.08578204684207,
          35.871151764082086
        ]
      }
    },
    {
      "type": "Feature",
      "properties": {
        "norad_id": 66664,
        "name": "SOYUZ-MS 28",
        "group": "stations",
        "lat": -25.764303645659563,
        "lon": 25.98911237157568,
        "alt_km": 419.74966452540866,
        "timestamp": "2025-12-04T10:51:48.895776+00:00",
        "meta_object_name": "SOYUZ-MS 28",
        "meta_object_id": "2025-275A",
        "meta_epoch": "2025-12-03T21:33:39.276864",
        "meta_mean_motion": 15.4928465,
        "meta_eccentricity": 0.0003592,
        "meta_inclination": 51.6303,
        "meta_ra_of_asc_node": 186.2514,
        "meta_arg_of_pericenter": 201.3576,
        "meta_mean_anomaly": 158.7263,
        "meta_ephemeris_type": 0,
        "meta_classification_type": "U",
        "meta_norad_cat_id": 66664,
        "meta_element_set_no": 999,
        "meta_rev_at_epoch": 107,
        "meta_bstar": 0.00025253,
        "meta_mean_motion_dot": 0.00013627,
        "meta_mean_motion_ddot": 0,
        "tle_line1": "1 66664U 25275A   25337.89837126  .00013627  00000+0  25253-3 0  9991",
        "tle_line2": "2 66664  51.6303 186.2514 0003592 201.3576 158.7263 15.49284650  1072"
      },
      "geometry": {
        "type": "Point",
        "coordinates": [
          25.98911237157568,
          -25.764303645659563
        ]
      }
    }
  ]
}